{
  "norad_id": 63584,
  "name": "STARLINK-33820",
  "history": [
    {
      "epoch": "2026-03-28T16:54:35.565984Z",
      "apogee_km": 483.63759306049724,
      "perigee_km": 482.33987973871535,
      "latitude_deg": 2.8934521791605998e-05,
      "longitude_deg": 134.0880393338727,
      "height_km": 482.8147829665842,
      "semi_major_axis_km": 6861.1257363996065,
      "eccentricity": 9.457e-05,
      "inclination_deg": 43.0011,
      "raan_deg": 213.8574,
      "arg_perigee_deg": 265.6135,
      "mean_anomaly_deg": 94.4609,
      "mean_motion_rev_day": 15.27600158
    },
    {
      "epoch": "2026-03-30T00:17:42.686304Z",
      "apogee_km": 484.53783898775055,
      "perigee_km": 481.34057747471525,
      "latitude_deg": 2.265624245450264e-06,
      "longitude_deg": 14.630894371246509,
      "height_km": 482.63189928417097,
      "semi_major_axis_km": 6861.076208231233,
      "eccentricity": 0.000233,
      "inclination_deg": 42.9998,
      "raan_deg": 206.4689,
      "arg_perigee_deg": 273.0373,
      "mean_anomaly_deg": 87.0212,
      "mean_motion_rev_day": 15.27616699
    },
    {
      "epoch": "2026-03-30T14:25:07.035168Z",
      "apogee_km": 484.35204105847424,
      "perigee_km": 481.6173351760244,
      "latitude_deg": -9.051655521146953e-06,
      "longitude_deg": 158.87780071393982,
      "height_km": 483.04057815564096,
      "semi_major_axis_km": 6861.121688117249,
      "eccentricity": 0.00019929,
      "inclination_deg": 43.004,
      "raan_deg": 203.1473,
      "arg_perigee_deg": 258.2544,
      "mean_anomaly_deg": 101.8084,
      "mean_motion_rev_day": 15.2760151
    },
    {
      "epoch": "2026-03-30T15:59:16.359648Z",
      "apogee_km": 484.54191872210686,
      "perigee_km": 481.4157199101928,
      "latitude_deg": -4.8769248842061845e-05,
      "longitude_deg": 134.90505935194494,
      "height_km": 482.95307381613964,
      "semi_major_axis_km": 6861.115819316149,
      "eccentricity": 0.00022782,
      "inclination_deg": 43.0039,
      "raan_deg": 202.7779,
      "arg_perigee_deg": 262.7788,
      "mean_anomaly_deg": 97.2804,
      "mean_motion_rev_day": 15.2760347
    },
    {
      "epoch": "2026-03-31T13:57:29.484864Z",
      "apogee_km": 483.836310122133,
      "perigee_km": 482.3391908815738,
      "latitude_deg": -9.676461809477217e-06,
      "longitude_deg": 159.2807251628383,
      "height_km": 483.0402090174757,
      "semi_major_axis_km": 6861.224750501853,
      "eccentricity": 0.0001091,
      "inclination_deg": 43.0024,
      "raan_deg": 197.6105,
      "arg_perigee_deg": 256.4171,
      "mean_anomaly_deg": 103.6559,
      "mean_motion_rev_day": 15.27567091
    },
    {
      "epoch": "2026-04-01T13:29:50.686080Z",
      "apogee_km": 483.2571684556224,
      "perigee_km": 482.7823764069708,
      "latitude_deg": -1.0832290118753508e-05,
      "longitude_deg": 159.68936529217635,
      "height_km": 482.9397783229077,
      "semi_major_axis_km": 6861.156772431296,
      "eccentricity": 3.46e-05,
      "inclination_deg": 43.0039,
      "raan_deg": 192.0742,
      "arg_perigee_deg": 232.6853,
      "mean_anomaly_deg": 127.3967,
      "mean_motion_rev_day": 15.27589793
    },
    {
      "epoch": "2026-04-02T16:10:28.968096Z",
      "apogee_km": 483.7058274735218,
      "perigee_km": 482.0660429919999,
      "latitude_deg": 4.971956133874731e-05,
      "longitude_deg": 112.15152467201412,
      "height_km": 482.58514297440905,
      "semi_major_axis_km": 6861.022935232761,
      "eccentricity": 0.0001195,
      "inclination_deg": 43.0001,
      "raan_deg": 185.7914,
      "arg_perigee_deg": 275.4119,
      "mean_anomaly_deg": 84.6597,
      "mean_motion_rev_day": 15.27634491
    },
    {
      "epoch": "2026-04-02T22:27:06.750720Z",
      "apogee_km": 483.6558562892005,
      "perigee_km": 482.2146194549123,
      "latitude_deg": -9.315602422439995e-06,
      "longitude_deg": 16.258140419653003,
      "height_km": 482.0319076822784,
      "semi_major_axis_km": 6861.072237872056,
      "eccentricity": 0.00010503,
      "inclination_deg": 42.9969,
      "raan_deg": 184.3133,
      "arg_perigee_deg": 19.7767,
      "mean_anomaly_deg": 340.3125,
      "mean_motion_rev_day": 15.27618025
    },
    {
      "epoch": "2026-04-03T12:34:31.176480Z",
      "apogee_km": 484.0439634556924,
      "perigee_km": 482.18346671179006,
      "latitude_deg": -1.5310143136050166e-05,
      "longitude_deg": 160.5046304865621,
      "height_km": 482.8971590547725,
      "semi_major_axis_km": 6861.250715083741,
      "eccentricity": 0.00013558,
      "inclination_deg": 42.9996,
      "raan_deg": 180.9916,
      "arg_perigee_deg": 269.5799,
      "mean_anomaly_deg": 90.4897,
      "mean_motion_rev_day": 15.2755842
    },
    {
      "epoch": "2026-04-04T12:06:53.181216Z",
      "apogee_km": 484.55718908855397,
      "perigee_km": 481.44250740492316,
      "latitude_deg": 2.9911731560824297e-05,
      "longitude_deg": 160.90746111102496,
      "height_km": 482.63557469159633,
      "semi_major_axis_km": 6861.136848246738,
      "eccentricity": 0.00022698,
      "inclination_deg": 43.0006,
      "raan_deg": 175.4528,
      "arg_perigee_deg": 275.2212,
      "mean_anomaly_deg": 84.8381,
      "mean_motion_rev_day": 15.27596447
    },
    {
      "epoch": "2026-04-05T11:39:14.919840Z",
      "apogee_km": 484.4645154269192,
      "perigee_km": 481.71275227420665,
      "latitude_deg": 1.9648541107932108e-05,
      "longitude_deg": 161.3111435762661,
      "height_km": 482.98730862221123,
      "semi_major_axis_km": 6861.225633850562,
      "eccentricity": 0.00020053,
      "inclination_deg": 42.9995,
      "raan_deg": 169.9138,
      "arg_perigee_deg": 264.9306,
      "mean_anomaly_deg": 95.1317,
      "mean_motion_rev_day": 15.27566796
    },
    {
      "epoch": "2026-04-06T06:29:07.215360Z",
      "apogee_km": 484.1626140288163,
      "perigee_km": 481.8401186918036,
      "latitude_deg": -1.5136725820033466e-05,
      "longitude_deg": -126.3611627375436,
      "height_km": 482.925162745517,
      "semi_major_axis_km": 6861.13836636031,
      "eccentricity": 0.00016925,
      "inclination_deg": 42.9985,
      "raan_deg": 165.4828,
      "arg_perigee_deg": 262.7247,
      "mean_anomaly_deg": 97.3412,
      "mean_motion_rev_day": 15.2759594
    },
    {
      "epoch": "2026-04-07T10:43:55.187328Z",
      "apogee_km": 484.2461801950494,
      "perigee_km": 481.77808762859877,
      "latitude_deg": -1.5681699655855578e-05,
      "longitude_deg": 162.13120129935592,
      "height_km": 482.5860920976981,
      "semi_major_axis_km": 6861.149133911824,
      "eccentricity": 0.00017986,
      "inclination_deg": 42.998,
      "raan_deg": 158.8351,
      "arg_perigee_deg": 279.4611,
      "mean_anomaly_deg": 80.6037,
      "mean_motion_rev_day": 15.27592344
    }
  ]
}